{
  "norad_id": 52619,
  "name": "STARLINK-3741",
  "history": [
    {
      "epoch": "2026-03-28T16:27:52.532352",
      "apogee_km": 540.6205927217052,
      "perigee_km": 538.868985052759,
      "latitude_deg": -45.092932786236,
      "longitude_deg": -132.24163072020747,
      "semi_major_axis_km": 6917.881788887232,
      "eccentricity": 0.0001266,
      "inclination_deg": 53.2176,
      "raan_deg": 183.8333,
      "arg_perigee_deg": 97.1279,
      "mean_anomaly_deg": 262.9857,
      "mean_motion_rev_day": 15.08839542
    }
  ]
}