{"fetched_at":"2026-03-30T06:02:59Z","count":15439,"tles":[{"name":"STARLINK-3741","line1":"1 52619U 22052X   26087.68602468  .00000857  00000+0  71934-4 0  9994","line2":"2 52619  53.2176 183.8333 0001266  97.1279 262.9857 15.08839542213851","category":"Starlink"}]}